NORAD_CAT_ID,OBJECT_NAME,OBJECT_TYPE,EPOCH,MEAN_MOTION,ECCENTRICITY,INCLINATION,RA_OF_ASC_NODE,ARG_OF_PERICENTER,MEAN_ANOMALY,BSTAR,MEAN_MOTION_DOT,MEAN_MOTION_DDOT,TLE_LINE0,TLE_LINE1,TLE_LINE2,SEMIMAJOR_AXIS,PERIOD,APOGEE,PERIGEE,DECAYED
52110.0,STARLINK-3687,PAYLOAD,2022-07-15 14:00:01,15.08856174,0.0001849,53.2141,303.665,47.577,141.3883,-0.0011388,-0.00018375,0.0,0 STARLINK-3687,1 52110U 22029Y   22196.58334491 -.00018375  00000-0 -11388-2 0  9990,2 52110  53.2141 303.6650 0001849  47.5770 141.3883 15.08856174  1309,6917.831,95.437,540.975,538.4169999999998,0.0
52110.0,STARLINK-3687,PAYLOAD,2022-07-15 22:00:00,15.0886006,0.0001771,53.2137,302.168,44.4784,156.1007,-0.0020955,-0.00033502,0.0,0 STARLINK-3687,1 52110U 22029Y   22196.91667824 -.00033502  00000-0 -20955-2 0  9995,2 52110  53.2137 302.1680 0001771  44.4784 156.1007 15.08860060 19575,6917.819,95.436,540.909,538.4590000000002,0.0
52110.0,STARLINK-3687,PAYLOAD,2022-07-16 06:00:00,15.0883027,0.0001745,53.2165,300.6677,45.2342,166.90400000000002,0.00061608,9.528e-05,0.0,0 STARLINK-3687,1 52110U 22029Y   22197.25001157  .00009528  00000-0  61608-3 0  9994,2 52110  53.2165 300.6677 0001745  45.2342 166.9040 15.08830270 19627,6917.91,95.438,540.982,538.568,0.0
52110.0,STARLINK-3687,PAYLOAD,2022-07-16 14:00:01,15.08849404,0.0001793,53.2136,299.1759,42.9231,180.8038,-0.00071226,-0.00011609,0.0,0 STARLINK-3687,1 52110U 22029Y   22197.58334491 -.00011609  00000-0 -71226-3 0  9992,2 52110  53.2136 299.1759 0001793  42.9231 180.8038 15.08849404  1309,6917.852,95.437,540.957,538.476,0.0
52110.0,STARLINK-3687,PAYLOAD,2022-07-16 22:00:00,15.08859036,0.0001710999999999,53.2134,297.6786,39.2828,196.0545,-0.0019676,-0.00031483,0.0,0 STARLINK-3687,1 52110U 22029Y   22197.91667824 -.00031483  00000-0 -19676-2 0  9990,2 52110  53.2134 297.6786 0001711  39.2828 196.0545 15.08859036  1305,6917.821999999999,95.436,540.871,538.504,0.0
52110.0,STARLINK-3687,PAYLOAD,2022-07-17 14:00:01,15.08836347,0.0001805,53.2174,294.6832,38.003,220.5004,5.9039e-05,6.52e-06,0.0,0 STARLINK-3687,1 52110U 22029Y   22198.58334491  .00000652  00000-0  59039-4 0  9996,2 52110  53.2174 294.6832 0001805  38.0030 220.5004 15.08836347 19823,6917.892,95.438,541.005,538.508,0.0
52110.0,STARLINK-3687,PAYLOAD,2022-07-17 22:00:00,15.0883845,0.0001748,53.2174,293.186,37.2645,232.8311,-0.00022154,-3.812e-05,0.0,0 STARLINK-3687,1 52110U 22029Y   22198.91667824 -.00003812  00000-0 -22154-3 0  9992,2 52110  53.2174 293.1860 0001748  37.2645 232.8311 15.08838450  1305,6917.885,95.438,540.9590000000002,538.5409999999998,0.0
52110.0,STARLINK-3687,PAYLOAD,2022-07-18 14:00:01,15.08834136,0.0001949,53.2137,290.1968,40.7405,252.5404,0.0012057,0.0001895,0.0,0 STARLINK-3687,1 52110U 22029Y   22199.58334491  .00018950  00000-0  12057-2 0  9994,2 52110  53.2137 290.1968 0001949  40.7405 252.5404 15.08834136  1305,6917.898,95.438,541.112,538.415,0.0
52110.0,STARLINK-3687,PAYLOAD,2022-07-18 22:00:00,15.08880413,0.000183,53.2137,288.6994,39.1936,265.6779,-0.0040774,-0.0006467,0.0,0 STARLINK-3687,1 52110U 22029Y   22199.91667824 -.00064670  00000-0 -40774-2 0  9999,2 52110  53.2137 288.6994 0001830  39.1936 265.6779 15.08880413 20025,6917.757,95.435,540.888,538.356,0.0
52110.0,STARLINK-3687,PAYLOAD,2022-07-19 14:00:01,15.08834033,0.0002077,53.214,285.7072,43.64,284.4379,0.0015007,0.00023673,0.0,0 STARLINK-3687,1 52110U 22029Y   22200.58334491  .00023673  00000-0  15007-2 0  9993,2 52110  53.2140 285.7072 0002077  43.6400 284.4379 15.08834033 20127,6917.899,95.438,541.2,538.327,0.0
52110.0,STARLINK-3687,PAYLOAD,2022-07-19 22:00:00,15.08900153,0.0001941,53.2154,284.2088,39.1687,300.5086,-0.010756,-0.00167791,0.0,0 STARLINK-3687,1 52110U 22029Y   22200.91667824 -.00167791  00000-0 -10756-1 0  9996,2 52110  53.2154 284.2088 0001941  39.1687 300.5086 15.08900153  1300,6917.696999999999,95.434,540.904,538.219,0.0
52110.0,STARLINK-3687,PAYLOAD,2022-07-20 14:00:01,15.08813949,0.0001909999999999,53.214,281.2176,38.5033,324.3633,0.0018794,0.00029728,0.0,0 STARLINK-3687,1 52110U 22029Y   22201.58334491  .00029728  00000-0  18794-2 0  9997,2 52110  53.2140 281.2176 0001910  38.5033 324.3633 15.08813949  1302,6917.96,95.439,541.146,538.504,0.0
52110.0,STARLINK-3687,PAYLOAD,2022-07-20 22:00:01,15.08850606,0.0001786999999999,53.2137,279.7198,39.6048,334.8938,-0.0022869,-0.00036511,0.0,0 STARLINK-3687,1 52110U 22029Y   22201.91668981 -.00036511  00000-0 -22869-2 0  9996,2 52110  53.2137 279.7198 0001787  39.6048 334.8938 15.08850606  1309,6917.848000000001,95.437,540.9490000000002,538.477,0.0
52110.0,STARLINK-3687,PAYLOAD,2022-07-21 06:00:00,15.08825759,0.0001739,53.214,278.2231,45.6355,340.3857,-0.00038465,-6.402e-05,0.0,0 STARLINK-3687,1 52110U 22029Y   22202.25001157 -.00006402  00000-0 -38465-3 0  9996,2 52110  53.2140 278.2231 0001739  45.6355 340.3857 15.08825759 20382,6917.924,95.438,540.992,538.586,0.0
52110.0,STARLINK-3687,PAYLOAD,2022-07-21 14:00:01,15.088020000000002,0.0001955,53.2138,276.7282,41.3976,356.2625,0.0016952,0.00026766,0.0,0 STARLINK-3687,1 52110U 22029Y   22202.58335648  .00026766  00000-0  16952-2 0  9996,2 52110  53.2138 276.7282 0001955  41.3976 356.2625 15.08802000  1304,6917.996999999999,95.44,541.214,538.509,0.0
52110.0,STARLINK-3687,PAYLOAD,2022-07-21 22:00:00,15.08829496,0.0001828,53.2135,275.2305,43.4212,5.738,-0.00093359,-0.00015111,0.0,0 STARLINK-3687,1 52110U 22029Y   22202.91667824 -.00015111  00000-0 -93359-3 0  9998,2 52110  53.2135 275.2305 0001828  43.4212   5.7380 15.08829496  1308,6917.9119999999975,95.438,541.0419999999998,538.513,0.0
52110.0,STARLINK-3687,PAYLOAD,2022-07-22 06:00:00,15.08838125,0.0001781,53.2135,273.7339,47.0182,13.7134,0.00016158,2.284e-05,0.0,0 STARLINK-3687,1 52110U 22029Y   22203.25001157  .00002284  00000-0  16158-3 0  9994,2 52110  53.2135 273.7339 0001781  47.0182  13.7134 15.08838125  1307,6917.886,95.438,540.9830000000002,538.519,0.0
52110.0,STARLINK-3687,PAYLOAD,2022-07-22 12:00:00,15.08833799,0.0001966,53.2133,272.6129,42.8165,296.6122,0.00018265,2.619e-05,0.0,0 STARLINK-3687,1 52110U 22029Y   22203.50001157  .00002619  00000-0  18265-3 0  9995,2 52110  53.2133 272.6129 0001966  42.8165 296.6122 15.08833799 20569,6917.899,95.438,541.124,538.404,0.0
52110.0,STARLINK-3687,PAYLOAD,2022-07-22 22:00:00,15.0884916,0.0001849,53.2132,270.7411,44.3478,39.573,-0.00037142,-6.196e-05,0.0,0 STARLINK-3687,1 52110U 22029Y   22203.91667824 -.00006196  00000-0 -37142-3 0  9990,2 52110  53.2132 270.7411 0001849  44.3478  39.5730 15.08849160  1304,6917.852,95.437,540.997,538.438,0.0
52110.0,STARLINK-3687,PAYLOAD,2022-07-23 14:00:01,15.08839777,0.0001972,53.2131,267.7496,40.4669,66.7273,-0.00035405,-5.919e-05,0.0,0 STARLINK-3687,1 52110U 22029Y   22204.58335648 -.00005919  00000-0 -35405-3 0  9992,2 52110  53.2131 267.7496 0001972  40.4669  66.7273 15.08839777  1305,6917.880999999999,95.438,541.11,538.382,0.0
52110.0,STARLINK-3687,PAYLOAD,2022-07-23 22:00:00,15.08835005,0.0001807,53.213,266.2516,41.6468,77.0872,8.1777e-05,1.013e-05,0.0,0 STARLINK-3687,1 52110U 22029Y   22204.91667824  .00001013  00000-0  81777-4 0  9996,2 52110  53.2130 266.2516 0001807  41.6468  77.0872 15.08835005  1308,6917.896,95.438,541.011,538.511,0.0
52110.0,STARLINK-3687,PAYLOAD,2022-07-24 14:00:01,15.08819883,0.0002016,53.213,263.2603,38.5668,103.3515,0.0026259,0.00041728,0.0,0 STARLINK-3687,1 52110U 22029Y   22205.58334491  .00041728  00000-0  26259-2 0  9990,2 52110  53.2130 263.2603 0002016  38.5668 103.3515 15.08819883  1305,6917.941999999999,95.439,541.202,538.4119999999998,0.0
52110.0,STARLINK-3687,PAYLOAD,2022-07-24 22:00:00,15.08839305,0.0001829,53.2131,261.7622,39.8912,113.6226,-0.0018482,-0.00029582,0.0,0 STARLINK-3687,1 52110U 22029Y   22205.91667824 -.00029582  00000-0 -18482-2 0  9991,2 52110  53.2131 261.7622 0001829  39.8912 113.6226 15.08839305 20931,6917.8830000000025,95.438,541.013,538.482,0.0
52110.0,STARLINK-3687,PAYLOAD,2022-07-25 14:00:01,15.08802248,0.000206,53.2131,258.771,36.545,140.1332,0.003135,0.00049908,0.0,0 STARLINK-3687,1 52110U 22029Y   22206.58334491  .00049908  00000-0  31350-2 0  9997,2 52110  53.2131 258.7710 0002060  36.5450 140.1332 15.08802248  1303,6917.996,95.44,541.286,538.436,0.0
52110.0,STARLINK-3687,PAYLOAD,2022-07-25 22:00:00,15.08822996,0.0001891,53.2132,257.2729,39.5255,148.72899999999996,0.00068895,0.00010689,0.0,0 STARLINK-3687,1 52110U 22029Y   22206.91667824  .00010689  00000-0  68895-3 0  9992,2 52110  53.2132 257.2729 0001891  39.5255 148.7290 15.08822996  1304,6917.932,95.439,541.106,538.489,0.0
52110.0,STARLINK-3687,PAYLOAD,2022-07-26 06:00:00,15.08847634,0.0001950999999999,53.2133,255.7769,41.8703,157.9578,-0.0013616,-0.00021898,0.0,0 STARLINK-3687,1 52110U 22029Y   22207.25001157 -.00021898  00000-0 -13616-2 0  9997,2 52110  53.2133 255.7769 0001951  41.8703 157.9578 15.08847634 21133,6917.857,95.437,541.072,538.372,0.0
52110.0,STARLINK-3687,PAYLOAD,2022-07-26 14:00:01,15.08812695,0.0002134999999999,53.2131,254.2817,37.1457,174.2834,0.0030219,0.00048099,0.0,0 STARLINK-3687,1 52110U 22029Y   22207.58334491  .00048099  00000-0  30219-2 0  9991,2 52110  53.2131 254.2817 0002135  37.1457 174.2834 15.08812695  1301,6917.964,95.439,541.306,538.352,0.0
52110.0,STARLINK-3687,PAYLOAD,2022-07-26 22:00:00,15.08827555,0.0001948,53.2132,252.7835,40.4615,182.557,0.0011331,0.00017785,0.0,0 STARLINK-3687,1 52110U 22029Y   22207.91667824  .00017785  00000-0  11331-2 0  9999,2 52110  53.2132 252.7835 0001948  40.4615 182.5570 15.08827555  1309,6917.918000000002,95.438,541.131,538.436,0.0
52110.0,STARLINK-3687,PAYLOAD,2022-07-27 06:00:02,15.08857367,0.0001998,53.2132,251.2876,42.2412,192.4261,-0.0015079,-0.00024218,0.0,0 STARLINK-3687,1 52110U 22029Y   22208.25002315 -.00024218  00000-0 -15079-2 0  9999,2 52110  53.2132 251.2876 0001998  42.2412 192.4261 15.08857367 21288,6917.8269999999975,95.436,541.0740000000002,538.31,0.0
